IRIDIUM 135             
1 43070U 17083A   26159.01188835 -.00000008  00000+0 -99246-5 0  9994
2 43070  86.3956 325.8527 0002093  91.7082 268.4354 14.34217584442838
IRIDIUM 138             
1 43071U 17083B   26159.17679666  .00000246  00000+0  80679-4 0  9990
2 43071  86.3973 325.4777 0002405  88.8473 271.2998 14.34218066442842
IRIDIUM 116             
1 43072U 17083C   26159.21485107  .00000225  00000+0  73200-4 0  9990
2 43072  86.3958 325.7538 0001859  94.1501 265.9907 14.34217592442885
IRIDIUM 130             
1 43073U 17083D   26159.18313768  .00000244  00000+0  79904-4 0  9998
2 43073  86.3967 326.0415 0001950  88.1759 271.9660 14.34218276442821
IRIDIUM 151             
1 43074U 17083E   26159.15776766  .00000134  00000+0  40903-4 0  9992
2 43074  86.3959 325.8351 0002105  91.6501 268.4936 14.34218048442842
IRIDIUM 134             
1 43075U 17083F   26158.91674951  .00000057  00000+0  13181-4 0  9991
2 43075  86.3961 325.9440 0002093  89.2680 270.8756 14.34218074442771
IRIDIUM 137             
1 43076U 17083G   26159.20850819  .00000005  00000+0 -54067-5 0  9997
2 43076  86.3956 325.9144 0001893 103.4935 256.6472 14.34217321442889
IRIDIUM 141             
1 43077U 17083H   26158.92309238 -.00000013  00000+0 -11689-4 0  9992
2 43077  86.3954 325.8651 0002104  90.8157 269.3280 14.34217279442847
IRIDIUM 153             
1 43078U 17083J   26159.08457713  .00000027  00000+0  26653-5 0  9994
2 43078  86.3955 294.2774 0002338  90.6406 269.5057 14.34217634443972
IRIDIUM 131             
1 43079U 17083K   26158.98017521 -.00000024  00000+0 -15682-4 0  9990
2 43079  86.3957 326.0265 0002107  92.0092 268.1345 14.34217441442784
IRIDIUM 144             
1 43249U 18030A   26158.88161320  .00000120  00000+0  35820-4 0  9999
2 43249  86.3951 294.2914 0002003  92.7323 267.4103 14.34217794428805
IRIDIUM 149             
1 43250U 18030B   26159.30656756  .00000057  00000+0  13159-4 0  9991
2 43250  86.3951 294.0811 0002256  92.9464 267.1990 14.34217880428884
IRIDIUM 157             
1 43251U 18030C   26159.11628987  .00000038  00000+0  64324-5 0  9996
2 43251  86.3952 294.2135 0002196  93.7834 266.3613 14.34217640428832
IRIDIUM 140             
1 43252U 18030D   26158.92601160  .00000045  00000+0  91071-5 0  9996
2 43252  86.3953 294.3057 0002148  92.1839 267.9603 14.34217806428866
IRIDIUM 145             
1 43253U 18030E   26158.91332542  .00000082  00000+0  22298-4 0  9996
2 43253  86.3951 294.2832 0001855  96.4966 263.6441 14.34217720428797
IRIDIUM 146             
1 43254U 18030F   26159.31290956  .00000020  00000+0  13670-7 0  9993
2 43254  86.3950 294.1286 0001982  95.2751 264.8671 14.34217584428863
IRIDIUM 148             
1 43255U 18030G   26159.07189080  .00000001  00000+0 -66583-5 0  9991
2 43255  86.3950 294.2723 0002062  97.0642 263.0789 14.34217471428866
IRIDIUM 142             
1 43256U 18030H   26159.31925206  .00000049  00000+0  10378-4 0  9998
2 43256  86.3950 294.0581 0002046  96.2987 263.8442 14.34217746428861
IRIDIUM 150             
1 43257U 18030J   26158.79915997  .00000059  00000+0  13850-4 0  9995
2 43257  86.3954 294.3917 0002169  92.1700 267.9744 14.34217855428812
IRIDIUM 143             
1 43258U 18030K   26159.12897447  .00000071  00000+0  18115-4 0  9996
2 43258  86.3956 294.3458 0002106  93.9920 266.1517 14.34217952428793
IRIDIUM 161             
1 43478U 18047C   26159.22531733  .00000430  00000+0  12197-3 0  9994
2 43478  86.4483  92.2178 0002539  88.4674 271.6818 14.43278386423846
IRIDIUM 152             
1 43479U 18047D   26159.24123025  .00000033  00000+0  46525-5 0  9991
2 43479  86.3956  92.0723 0002379  84.4087 275.7380 14.34217776421204
IRIDIUM 147             
1 43480U 18047E   26159.17780381  .00000082  00000+0  22071-4 0  9992
2 43480  86.3958  92.1038 0002143  84.9150 275.2290 14.34217670421199
IRIDIUM 110             
1 43481U 18047F   26159.18414718  .00000014  00000+0 -21202-5 0  9994
2 43481  86.3960  92.1928 0002466  86.3733 273.7745 14.34217595421185
IRIDIUM 162             
1 43482U 18047G   26159.21901972  .00000343  00000+0  95845-4 0  9999
2 43482  86.4477  92.1118 0002343  83.6048 276.5420 14.43276700423832
IRIDIUM 160             
1 43569U 18061A   26159.19975079  .00000039  00000+0  67303-5 0  9998
2 43569  86.3967  60.5550 0002279  86.5851 273.5606 14.34217917412085
IRIDIUM 166             
1 43570U 18061B   26159.22512109  .00000005  00000+0 -52519-5 0  9992
2 43570  86.3967  60.4947 0002011  84.7939 275.3486 14.34217525412112
IRIDIUM 158             
1 43571U 18061C   26159.19340800  .00000127  00000+0  38459-4 0  9996
2 43571  86.3966  60.5183 0002275  82.6478 277.4976 14.34217608412076
IRIDIUM 165             
1 43572U 18061D   26159.21877366  .00000210  00000+0  67853-4 0  9995
2 43572  86.3969  60.5536 0002083  85.7701 274.3733 14.34216234412107
IRIDIUM 155             
1 43573U 18061E   26159.18072289  .00000024  00000+0  16823-5 0  9998
2 43573  86.3964  60.4389 0002181  83.3862 276.7582 14.34217760412067
